KUZGTU 1 (RS47S)        
1 57217U 23091AV  26195.82658340  .00006579  00000+0  22569-3 0  9999
2 57217  97.5053 260.5974 0010116   7.6057 352.5335 15.30465188168608
SONATE-2                
1 59112U 24043Q   26195.40405809  .00029401  00000+0  35358-3 0  9996
2 59112  97.5552 347.5164 0006864 108.7860 251.4142 15.60784505132137
MESAT1                  
1 60209U 24125G   26195.60457834  .00045892  00000+0  44113-3 0  9994
2 60209  97.2247  53.7705 0010926 114.2072 246.0332 15.66383054113851
OOV-CUBE (TUBSAT-30)    
1 60240U 24128F   26195.40209776  .00001023  00000+0  90398-4 0  9995
2 60240  61.9937 130.6682 0041218 139.8475 220.5674 15.02871955110201
COLIBRI-S (RS67S)       
1 61746U 24199M   26195.85256676  .00013280  00000+0  24806-3 0  9993
2 61746  97.2950  69.9757 0008956 163.3618 196.7929 15.48840123141697
HORS 3 (RS81S)          
1 61753U 24199U   26195.74376855  .00024689  00000+0  34416-3 0  9994
2 61753  97.2933  72.1664 0007104 157.1846 202.9726 15.56882537141843
HORS 4 (RS82S)          
1 61754U 24199V   26195.74299940  .00035164  00000+0  39758-3 0  9998
2 61754  97.2876  73.5597 0006981 149.6233 210.5431 15.62353175141945
SIT-2086                
1 61764U 24199AF  26195.69116214  .00025257  00000+0  37718-3 0  9991
2 61764  97.2889  72.4939 0008177 145.7749 214.4034 15.54993194138700
HYPERVIEW 1G (RS66S)    
1 61772U 24199AP  26194.97856389  .00176797  00000+0  74626-3 0  9999
2 61772  97.2813  76.2153 0008246 151.3914 208.7811 15.84916828138903
ALTAIR (RS65S)          
1 61779U 24199AW  26195.84143801  .00006447  00000+0  17711-3 0  9997
2 61779  97.2992  65.0145 0011987 197.7906 162.2920 15.37501632141366
ASRTU-1 (AO-123)        
1 61781U 24199AY  26195.78945729  .00004377  00000+0  12669-3 0  9999
2 61781  97.2963  64.2136 0012963 202.1972 157.8712 15.36050023138162
SAMSAT-IONOSPHERE (RS7*)
1 61784U 24199BB  26195.85439404  .00030819  00000+0  37993-3 0  9995
2 61784  97.2898  72.4371 0009206 161.4467 198.7128 15.60098939141878
RTU MIREA 1 (RS51S)     
1 61785U 24199BC  26195.74776204  .00043078  00000+0  45153-3 0  9994
2 61785  97.2884  73.3144 0009272 156.4443 203.7242 15.64234240138773
TEVEL2-4                
1 63213U 25052D   26195.69012353  .00010349  00000+0  30168-3 0  9998
2 63213  97.3873  92.1411 0003582  52.7606 307.3964 15.35555371 74335
TEVEL2-5                
1 63214U 25052E   26195.71383550  .00010851  00000+0  31806-3 0  9990
2 63214  97.3870  92.1047 0003639  54.2454 305.9128 15.35369597 74338
TEVEL2-6                
1 63215U 25052F   26195.66162234  .00010923  00000+0  32054-3 0  9995
2 63215  97.3876  92.0373 0003680  56.3552 303.8042 15.35331616 74326
TEVEL2-1                
1 63217U 25052H   26195.63531657  .00009885  00000+0  29557-3 0  9992
2 63217  97.3846  91.6018 0004319  61.6960 298.4718 15.34761887 74301
TEVEL2-3                
1 63218U 25052J   26195.69409509  .00009878  00000+0  29479-3 0  9994
2 63218  97.3851  91.6861 0004049  62.6688 297.4967 15.34825600 74312
TEVEL2-2                
1 63219U 25052K   26195.70064647  .00009938  00000+0  29703-3 0  9994
2 63219  97.3843  91.6701 0004354  61.5612 298.6069 15.34774244 74314
OTP-2                   
1 63235U 25052AB  26195.66954161  .00003806  00000+0  15840-3 0  9991
2 63235  97.3837  87.6913 0008220  72.4974 287.7162 15.24333192 74059
TEVEL2-9                
1 63237U 25052AD  26195.64897022  .00009574  00000+0  30513-3 0  9995
2 63237  97.3910  90.9324 0007720  58.9177 301.2822 15.32721747 74235
TEVEL2-7                
1 63238U 25052AE  26195.69534027  .00009140  00000+0  29430-3 0  9999
2 63238  97.3908  90.8827 0007786  58.0835 302.1163 15.32406537 74239
TEVEL2-8                
1 63239U 25052AF  26195.70385766  .00009092  00000+0  29291-3 0  9997
2 63239  97.3909  90.8675 0007827  59.1574 301.0437 15.32392229 74234
INNOSAT 16 (RS92S7)     
1 64878U 25155C   26195.81223520  .00003235  00000+0  12947-3 0  9995
2 64878  97.4582 162.8602 0012480  89.5952 270.6716 15.25736122 84889
GEOSCAN 6 (RS92S6)      
1 64879U 25155D   26195.83906944  .00005853  00000+0  19991-3 0  9990
2 64879  97.4571 164.5106 0009956  83.1653 277.0721 15.30650330 84999
GEOSCAN 1 (RS92S1)      
1 64880U 25155E   26195.83027226  .00006411  00000+0  21440-3 0  9992
2 64880  97.4568 164.6747 0009900  83.4304 276.8064 15.31297766 85005
239ALFEROV (RS61S)      
1 64881U 25155F   26195.82409969  .00008294  00000+0  25692-3 0  9994
2 64881  97.4565 165.3264 0009606  83.2025 277.0310 15.33663424 85047
GEOSCAN 2 (RS92S2)      
1 64890U 25155Q   26195.81920703  .00006360  00000+0  21107-3 0  9996
2 64890  97.4567 164.8268 0009064  73.6143 286.6094 15.31555318 85011
GEOSCAN 5 (RS92S5)      
1 64891U 25155R   26195.80749093  .00008872  00000+0  27210-3 0  9998
2 64891  97.4558 165.4575 0008652  87.6879 272.5354 15.33969715 85052
GEOSCAN 4 (RS92S4)      
1 64892U 25155S   26195.85402125  .00008580  00000+0  26183-3 0  9990
2 64892  97.4562 165.5612 0008569  87.8251 272.3973 15.34137832 85068
