OBJECT_NAME,OBJECT_ID,EPOCH,MEAN_MOTION,ECCENTRICITY,INCLINATION,RA_OF_ASC_NODE,ARG_OF_PERICENTER,MEAN_ANOMALY,EPHEMERIS_TYPE,CLASSIFICATION_TYPE,NORAD_CAT_ID,ELEMENT_SET_NO,REV_AT_EPOCH,BSTAR,MEAN_MOTION_DOT,MEAN_MOTION_DDOT
KUZGTU 1 (RS47S),2023-091AV,2026-07-14T19:50:16.805760,15.30465188,.0010116,97.5053,260.5974,7.6057,352.5335,0,U,57217,999,16860,.22569E-3,.6579E-4,0
SONATE-2,2024-043Q,2026-07-14T09:41:50.618976,15.60784505,.0006864,97.5552,347.5164,108.7860,251.4142,0,U,59112,999,13213,.35358083E-3,.29401E-3,0
MESAT1,2024-125G,2026-07-14T14:30:35.568576,15.66383054,.0010926,97.2247,53.7705,114.2072,246.0332,0,U,60209,999,11385,.44113E-3,.45892E-3,0
OOV-CUBE (TUBSAT-30),2024-128F,2026-07-14T09:39:01.246464,15.02871955,.00412187,61.9937,130.6682,139.8475,220.5674,0,U,60240,999,11020,.90398228E-4,.1023E-4,0
COLIBRI-S (RS67S),2024-199M,2026-07-14T20:27:41.768064,15.48840123,.0008956,97.2950,69.9757,163.3618,196.7929,0,U,61746,999,14169,.24806E-3,.1328E-3,0
HORS 3 (RS81S),2024-199U,2026-07-14T17:51:01.602720,15.56882537,.0007104,97.2933,72.1664,157.1846,202.9726,0,U,61753,999,14184,.34416E-3,.24689E-3,0
HORS 4 (RS82S),2024-199V,2026-07-14T17:49:55.148160,15.62353175,.0006981,97.2876,73.5597,149.6233,210.5431,0,U,61754,999,14194,.39758E-3,.35164E-3,0
SIT-2086,2024-199AF,2026-07-14T16:35:16.408896,15.54993194,.0008177,97.2889,72.4939,145.7749,214.4034,0,U,61764,999,13870,.37718E-3,.25257E-3,0
HYPERVIEW 1G (RS66S),2024-199AP,2026-07-13T23:29:07.920096,15.84916828,.00082465,97.2813,76.2153,151.3914,208.7811,0,U,61772,999,13890,.74626479E-3,.176797E-2,0
ALTAIR (RS65S),2024-199AW,2026-07-14T20:11:40.244064,15.37501632,.0011987,97.2992,65.0145,197.7906,162.2920,0,U,61779,999,14136,.17711E-3,.6447E-4,0
ASRTU-1 (AO-123),2024-199AY,2026-07-14T18:56:49.109856,15.36050023,.0012963,97.2963,64.2136,202.1972,157.8712,0,U,61781,999,13816,.12669E-3,.4377E-4,0
SAMSAT-IONOSPHERE (RS75S),2024-199BB,2026-07-14T20:30:19.645056,15.60098939,.0009206,97.2898,72.4371,161.4467,198.7128,0,U,61784,999,14187,.37993E-3,.30819E-3,0
RTU MIREA 1 (RS51S),2024-199BC,2026-07-14T17:56:46.640256,15.64234240,.0009272,97.2884,73.3144,156.4443,203.7242,0,U,61785,999,13877,.45153E-3,.43078E-3,0
TEVEL2-4,2025-052D,2026-07-14T16:33:46.672992,15.35555371,.0003582,97.3873,92.1411,52.7606,307.3964,0,U,63213,999,7433,.30168E-3,.10349E-3,0
TEVEL2-5,2025-052E,2026-07-14T17:07:55.387200,15.35369597,.0003639,97.3870,92.1047,54.2454,305.9128,0,U,63214,999,7433,.31806E-3,.10851E-3,0
TEVEL2-6,2025-052F,2026-07-14T15:52:44.170176,15.35331616,.000368,97.3876,92.0373,56.3552,303.8042,0,U,63215,999,7432,.32054E-3,.10923E-3,0
TEVEL2-1,2025-052H,2026-07-14T15:14:51.351648,15.34761887,.0004319,97.3846,91.6018,61.6960,298.4718,0,U,63217,999,7430,.29557E-3,.9885E-4,0
TEVEL2-3,2025-052J,2026-07-14T16:39:29.815776,15.34825600,.0004049,97.3851,91.6861,62.6688,297.4967,0,U,63218,999,7431,.29479E-3,.9878E-4,0
TEVEL2-2,2025-052K,2026-07-14T16:48:55.855008,15.34774244,.0004354,97.3843,91.6701,61.5612,298.6069,0,U,63219,999,7431,.29703E-3,.9938E-4,0
OTP-2,2025-052AB,2026-07-14T16:04:08.395104,15.24333192,.000822,97.3837,87.6913,72.4974,287.7162,0,U,63235,999,7405,.1584E-3,.3806E-4,0
TEVEL2-9,2025-052AD,2026-07-14T15:34:31.027008,15.32721747,.000772,97.3910,90.9324,58.9177,301.2822,0,U,63237,999,7423,.30513E-3,.9574E-4,0
TEVEL2-7,2025-052AE,2026-07-14T16:41:17.399328,15.32406537,.0007786,97.3908,90.8827,58.0835,302.1163,0,U,63238,999,7423,.2943E-3,.914E-4,0
TEVEL2-8,2025-052AF,2026-07-14T16:53:33.301824,15.32392229,.0007827,97.3909,90.8675,59.1574,301.0437,0,U,63239,999,7423,.29291E-3,.9092E-4,0
INNOSAT 16 (RS92S7),2025-155C,2026-07-14T19:29:37.121280,15.25736122,.001248,97.4582,162.8602,89.5952,270.6716,0,U,64878,999,8488,.12947E-3,.3235E-4,0
GEOSCAN 6 (RS92S6),2025-155D,2026-07-14T20:08:15.599616,15.30650330,.0009956,97.4571,164.5106,83.1653,277.0721,0,U,64879,999,8499,.19991E-3,.5853E-4,0
GEOSCAN 1 (RS92S1),2025-155E,2026-07-14T19:55:35.523264,15.31297766,.00099,97.4568,164.6747,83.4304,276.8064,0,U,64880,999,8500,.2144E-3,.6411E-4,0
239ALFEROV (RS61S),2025-155F,2026-07-14T19:46:42.213216,15.33663424,.0009606,97.4565,165.3264,83.2025,277.0310,0,U,64881,999,8504,.25692E-3,.8294E-4,0
GEOSCAN 2 (RS92S2),2025-155Q,2026-07-14T19:39:39.487392,15.31555318,.0009064,97.4567,164.8268,73.6143,286.6094,0,U,64890,999,8501,.21107E-3,.636E-4,0
GEOSCAN 5 (RS92S5),2025-155R,2026-07-14T19:22:47.216352,15.33969715,.0008652,97.4558,165.4575,87.6879,272.5354,0,U,64891,999,8505,.2721E-3,.8872E-4,0
GEOSCAN 4 (RS92S4),2025-155S,2026-07-14T20:29:47.436000,15.34137832,.0008569,97.4562,165.5612,87.8251,272.3973,0,U,64892,999,8506,.26183E-3,.858E-4,0
